# Made by eph2tle, compiled Dec  1 2019 09:55:14
# Run at Wed Dec 25 14:39:46 2019
#
#    The following TLEs (Two-Line Elements) were generated by fitting
# a numerically-integrated ephemeris,  based on the orbit given below,
# to the SDP4/SGP4 models.  Each TLE is good for the interval between
# its epoch and the epoch of the subsequent TLE (usually one day).
# The maximum deviation between the numerically integrated ephemerides
# and the TLE-based ephemeris, in kilometers,  is given for each TLE
# as the "worst residual".
#
#    This fitting is done using the 'eph2tle' code packaged with Find_Orb.
# The code has details on how the TLEs were computed :
#
#    https://github.com/Bill-Gray/find_orb/eph2tle.cpp
#
#    Be warned:  the error given is that between the numerically
# integrated ephems and the TLE model.  There will usually be at
# least some additional difference between the ephems and the actual
# motion of the satellite,  especially if the ephemerides are based
# on a short arc.  If the following orbital elements say something
# like "[based on] 10 observations 2015 Jan. 1-13",  and the TLEs
# are for 2015 May,  the extrapolation may be tenuous at best.  If
# your application requires a specific level of accuracy,  you may
# want to contact me;  I can give you some idea as to the fit of the
# underlying data (and possibly TLEs based on newer data).
#
#   You can usually find the underlying observational data,  and the
# fitted orbit,  residuals,  ephemerides,  and sometimes some comments
# about the object,  among the pages listed at
#
#    https://www.projectpluto.com/pluto/mpecs/pseudo.htm
#
#    Also,  if you use a TLE outside the "correct" time range (between
# its MJD and that of the next TLE),  all bets are off.  I've carefully
# computed and minimized the worst error over the "correct" time frame,
# but the ephemeris may (or may not) diverge wildly outside of it.
#
# Ephem range: 58849.000000 59215.000000 1.000000
# Created Wed Dec 25 14:39:00 2019
# Ephemeris start:  1 Jan 2020  0:00:00
# Ephemeris end:    1 Jan 2021  0:00:00
# Times are all TDT
# Positions/velocities are in equatorial J2000
# Orbital elements:  1963-039A
#    Perigee 2019 Mar 25.916227 +/- 0.000519 TT = 21:59:22 (JD 2458568.416227)
# Epoch 2019 Mar 25.0 TT = JDT 2458567.5                        Gray
# M 286.7989611046 +/- 0.043          (J2000 equator)
# n  79.8939660592 +/- 0.00179        Peri.  134.0803659 +/- 0.032
# a115237.59491 +/- 1.72              Node   162.7018165 +/- 0.00033
# e   0.389813454 +/- 0.00018         Incl.   34.1563417 +/- 0.00026
# P6488.48m/4.506d           H 30.7   G  0.15   U  8.5  
# q 70316.429907 +/- 19.8    Q 160158.75992 +/- 22.8
# From 16 observations 2019 Mar. 6-25; mean residual 1".808
#
# 1 NoradU COSPAR   Epoch.epoch     dn/dt/2  d2n/dt2/6 BSTAR    T El# C
# 2 NoradU Inclina RAAscNode Eccent  ArgPeri MeanAno  MeanMotion Rev# C

# Worst residual: 3.16 km
# MJD 58849.000000 (2020 Jan  1  0:00)
1963-039A
1 00674U 63039A   20001.49919926  .00000000  00000-0  00000-0 0  7246
2 00674 036.3841 154.5028 3217471 133.4296 194.1553 00.22196587    00

# Worst residual: 5.35 km
# MJD 58850.000000 (2020 Jan  2  0:00)
1963-039A
1 00674U 63039A   20002.49919926  .00000000  00000-0  00000-0 0  7247
2 00674 036.3959 154.4734 3215391 133.4727 274.0384 00.22204580    04

# Worst residual: 6.44 km
# MJD 58851.000000 (2020 Jan  3  0:00)
1963-039A
1 00674U 63039A   20003.49919926  .00000000  00000-0  00000-0 0  7248
2 00674 036.4121 154.4662 3208310 133.5225 353.9492 00.22232591    03

# Worst residual: 3.74 km
# MJD 58852.000000 (2020 Jan  4  0:00)
1963-039A
1 00674U 63039A   20004.49919926  .00000000  00000-0  00000-0 0  7249
2 00674 036.4037 154.4337 3212986 133.5332 073.8989 00.22202055    02

# Worst residual: 3.00 km
# MJD 58853.000000 (2020 Jan  5  0:00)
1963-039A
1 00674U 63039A   20005.49919926  .00000000  00000-0  00000-0 0  7240
2 00674 036.4101 154.3860 3212360 133.4571 153.9991 00.22216000    02

# Worst residual: 0.96 km
# MJD 58854.000000 (2020 Jan  6  0:00)
1963-039A
1 00674U 63039A   20006.49919926  .00000000  00000-0  00000-0 0  7241
2 00674 036.4122 154.3654 3209510 133.4159 234.0627 00.22214579    07

# Worst residual: 8.51 km
# MJD 58855.000000 (2020 Jan  7  0:00)
1963-039A
1 00674U 63039A   20007.49919926  .00000000  00000-0  00000-0 0  7242
2 00674 036.4246 154.3432 3204611 133.4288 314.0173 00.22221115    07

# Worst residual: 9.77 km
# MJD 58856.000000 (2020 Jan  8  0:00)
1963-039A
1 00674U 63039A   20008.49919926  .00000000  00000-0  00000-0 0  7243
2 00674 036.4161 154.3638 3199959 133.2132 034.1368 00.22227531    09

# Worst residual: 2.88 km
# MJD 58857.000000 (2020 Jan  9  0:00)
1963-039A
1 00674U 63039A   20009.49919926  .00000000  00000-0  00000-0 0  7244
2 00674 036.4116 154.3112 3199876 133.1911 114.1988 00.22228867    08

# Worst residual: 8.36 km
# MJD 58858.000000 (2020 Jan 10  0:00)
1963-039A
1 00674U 63039A   20010.49919926  .00000000  00000-0  00000-0 0  7246
2 00674 036.4362 154.2339 3193279 133.3111 194.0966 00.22213431    00

# Worst residual: 12.55 km
# MJD 58859.000000 (2020 Jan 11  0:00)
1963-039A
1 00674U 63039A   20011.49919926  .00000000  00000-0  00000-0 0  7247
2 00674 036.5036 154.1718 3189531 133.5313 273.8052 00.22236448    06

# Worst residual: 17.99 km
# MJD 58860.000000 (2020 Jan 12  0:00)
1963-039A
1 00674U 63039A   20012.49919926  .00000000  00000-0  00000-0 0  7248
2 00674 036.5321 154.1852 3191682 133.4764 353.8992 00.22216780    00

# Worst residual: 8.97 km
# MJD 58861.000000 (2020 Jan 13  0:00)
1963-039A
1 00674U 63039A   20013.49919926  .00000000  00000-0  00000-0 0  7249
2 00674 036.5121 154.1619 3196358 133.5708 073.7124 00.22167513    07

# Worst residual: 10.55 km
# MJD 58862.000000 (2020 Jan 14  0:00)
1963-039A
1 00674U 63039A   20014.49919926  .00000000  00000-0  00000-0 0  7240
2 00674 036.5188 154.1391 3192254 133.2507 154.1400 00.22216264    01

# Worst residual: 7.98 km
# MJD 58863.000000 (2020 Jan 15  0:00)
1963-039A
1 00674U 63039A   20015.49919926  .00000000  00000-0  00000-0 0  7241
2 00674 036.5209 154.1184 3186129 133.0844 234.3989 00.22204950    03

# Worst residual: 17.41 km
# MJD 58864.000000 (2020 Jan 16  0:00)
1963-039A
1 00674U 63039A   20016.49919926  .00000000  00000-0  00000-0 0  7242
2 00674 036.5060 154.0824 3169302 133.1561 314.1390 00.22223267    04

# Worst residual: 14.80 km
# MJD 58865.000000 (2020 Jan 17  0:00)
1963-039A
1 00674U 63039A   20017.49919926  .00000000  00000-0  00000-0 0  7243
2 00674 036.5100 154.0610 3166909 133.0841 034.1932 00.22223153    07

# Worst residual: 3.20 km
# MJD 58866.000000 (2020 Jan 18  0:00)
1963-039A
1 00674U 63039A   20018.49919926  .00000000  00000-0  00000-0 0  7244
2 00674 036.5162 154.0299 3173232 133.1064 114.0583 00.22203623    03

# Worst residual: 5.60 km
# MJD 58867.000000 (2020 Jan 19  0:00)
1963-039A
1 00674U 63039A   20019.49919926  .00000000  00000-0  00000-0 0  7245
2 00674 036.5321 153.9766 3175193 133.1630 193.9410 00.22209998    00

# Worst residual: 6.39 km
# MJD 58868.000000 (2020 Jan 20  0:00)
1963-039A
1 00674U 63039A   20020.49919926  .00000000  00000-0  00000-0 0  7247
2 00674 036.5631 153.9355 3175950 133.3024 273.7786 00.22232317    02

# Worst residual: 12.10 km
# MJD 58869.000000 (2020 Jan 21  0:00)
1963-039A
1 00674U 63039A   20021.49919926  .00000000  00000-0  00000-0 0  7248
2 00674 036.5867 153.9510 3172839 133.2080 353.8625 00.22226451    04

# Worst residual: 4.43 km
# MJD 58870.000000 (2020 Jan 22  0:00)
1963-039A
1 00674U 63039A   20022.49919926  .00000000  00000-0  00000-0 0  7249
2 00674 036.5570 153.9221 3173991 133.1505 073.8989 00.22215273    07

# Worst residual: 2.83 km
# MJD 58871.000000 (2020 Jan 23  0:00)
1963-039A
1 00674U 63039A   20023.49919926  .00000000  00000-0  00000-0 0  7240
2 00674 036.5630 153.8686 3169147 133.2067 153.8578 00.22206409    04

# Worst residual: 7.35 km
# MJD 58872.000000 (2020 Jan 24  0:00)
1963-039A
1 00674U 63039A   20024.49919926  .00000000  00000-0  00000-0 0  7241
2 00674 036.5714 153.8381 3165069 133.3239 233.6110 00.22206481    09

# Worst residual: 4.47 km
# MJD 58873.000000 (2020 Jan 25  0:00)
1963-039A
1 00674U 63039A   20025.49919926  .00000000  00000-0  00000-0 0  7242
2 00674 036.5859 153.8140 3159657 133.4632 313.4082 00.22232536    01

# Worst residual: 15.95 km
# MJD 58874.000000 (2020 Jan 26  0:00)
1963-039A
1 00674U 63039A   20026.49919926  .00000000  00000-0  00000-0 0  7243
2 00674 036.5834 153.8200 3175719 133.5275 033.2947 00.22137767    09

# Worst residual: 15.97 km
# MJD 58875.000000 (2020 Jan 27  0:00)
1963-039A
1 00674U 63039A   20027.49919926  .00000000  00000-0  00000-0 0  7244
2 00674 036.5879 153.7883 3161301 133.3695 113.4479 00.22183667    01

# Worst residual: 4.61 km
# MJD 58876.000000 (2020 Jan 28  0:00)
1963-039A
1 00674U 63039A   20028.49919926  .00000000  00000-0  00000-0 0  7245
2 00674 036.5932 153.7692 3154241 133.1554 193.7442 00.22190962    03

# Worst residual: 6.20 km
# MJD 58877.000000 (2020 Jan 29  0:00)
1963-039A
1 00674U 63039A   20029.49919926  .00000000  00000-0  00000-0 0  7246
2 00674 036.6024 153.7414 3151373 133.2045 273.5888 00.22199049    03

# Worst residual: 7.14 km
# MJD 58878.000000 (2020 Jan 30  0:00)
1963-039A
1 00674U 63039A   20030.49919926  .00000000  00000-0  00000-0 0  7248
2 00674 036.6164 153.7277 3146155 133.3038 353.4624 00.22226553    07

# Worst residual: 5.18 km
# MJD 58879.000000 (2020 Jan 31  0:00)
1963-039A
1 00674U 63039A   20031.49919926  .00000000  00000-0  00000-0 0  7249
2 00674 036.6115 153.6970 3152217 133.3962 073.3045 00.22178746    09

# Worst residual: 7.13 km
# MJD 58880.000000 (2020 Feb  1  0:00)
1963-039A
1 00674U 63039A   20032.49919926  .00000000  00000-0  00000-0 0  7240
2 00674 036.6178 153.6587 3150010 133.1985 153.5433 00.22209806    08
